STARLINK-30959          
1 58442U 23183F   26068.97040888 -.00002661  00000+0 -89464-4 0  9997
2 58442  43.0030  39.4885 0001273 267.6758  92.3948 15.26773762126781
OTTER                   
1 62623U 25009Q   26068.72300813  .00012198  00000+0  45151-3 0  9990
2 62623  97.4065 151.3812 0003572 310.7710  49.3219 15.27809545 63721
